[{"OBJECT_NAME":"STARLINK-5465","OBJECT_ID":"2022-175T","EPOCH":"2026-03-09T08:58:18.069600","MEAN_MOTION":15.08841142,"ECCENTRICITY":0.00014543,"INCLINATION":53.2191,"RA_OF_ASC_NODE":45.3741,"ARG_OF_PERICENTER":96.9856,"MEAN_ANOMALY":263.1301,"EPHEMERIS_TYPE":0,"CLASSIFICATION_TYPE":"U","NORAD_CAT_ID":54775,"ELEMENT_SET_NO":999,"REV_AT_EPOCH":17987,"BSTAR":-0.00013390248,"MEAN_MOTION_DOT":-2.418e-5,"MEAN_MOTION_DDOT":0},{"OBJECT_NAME":"NOAA 17 DEB","OBJECT_ID":"2002-032CE","EPOCH":"2026-03-09T04:37:56.707680","MEAN_MOTION":15.14538728,"ECCENTRICITY":0.00195132,"INCLINATION":98.8443,"RA_OF_ASC_NODE":158.3366,"ARG_OF_PERICENTER":246.7141,"MEAN_ANOMALY":113.2034,"EPHEMERIS_TYPE":0,"CLASSIFICATION_TYPE":"U","NORAD_CAT_ID":48745,"ELEMENT_SET_NO":999,"REV_AT_EPOCH":26329,"BSTAR":0.0059143418,"MEAN_MOTION_DOT":0.00111029,"MEAN_MOTION_DDOT":0}]
